AQUA
1 27424U 02022A   18094.55528642  .00000100  00000-0  32328-4 0  9997
2 27424  98.2044  36.8852 0000990 335.4050 204.7951 14.57107797846709
